{
  "type": "FeatureCollection",
  "features": [
    {
      "type": "Feature",
      "properties": {
        "norad_id": 66431,
        "name": "STARLINK-35439",
        "group": "last-30-days",
        "lat": 9.06894493032628,
        "lon": -108.15882161867232,
        "alt_km": 422.5376923654221,
        "timestamp": "2025-12-06T20:37:54.812078+00:00",
        "meta_object_name": "STARLINK-35439",
        "meta_object_id": "2025-259K",
        "meta_epoch": "2025-12-06T13:43:13.793952",
        "meta_mean_motion": 15.47886848,
        "meta_eccentricity": 0.00016368,
        "meta_inclination": 43.0003,
        "meta_ra_of_asc_node": 83.3817,
        "meta_arg_of_pericenter": 275.1836,
        "meta_mean_anomaly": 84.8836,
        "meta_ephemeris_type": 0,
        "meta_classification_type": "U",
        "meta_norad_cat_id": 66431,
        "meta_element_set_no": 999,
        "meta_rev_at_epoch": 521,
        "meta_bstar": -0.008003332,
        "meta_mean_motion_dot": -0.00405794,
        "meta_mean_motion_ddot": 0,
        "tle_line1": "1 66431U 25259K   25340.57168743 -.00405794  00000+0 -80033-2 0  9994",
        "tle_line2": "2 66431  43.0003  83.3817 0001636 275.1836  84.8836 15.47886848  5214"
      },
      "geometry": {
        "type": "Point",
        "coordinates": [
          -108.15882161867232,
          9.06894493032628
        ]
      }
    },
    {
      "type": "Feature",
      "properties": {
        "norad_id": 66432,
        "name": "STARLINK-35446",
        "group": "last-30-days",
        "lat": 3.6253945308205444,
        "lon": -102.21247111074256,
        "alt_km": 408.27298722087835,
        "timestamp": "2025-12-06T20:37:54.812088+00:00",
        "meta_object_name": "STARLINK-35446",
        "meta_object_id": "2025-259L",
        "meta_epoch": "2025-12-06T13:41:56.910048",
        "meta_mean_motion": 15.50893835,
        "meta_eccentricity": 0.00144162,
        "meta_inclination": 43.001,
        "meta_ra_of_asc_node": 83.3771,
        "meta_arg_of_pericenter": 233.1214,
        "meta_mean_anomaly": 126.8325,
        "meta_ephemeris_type": 0,
        "meta_classification_type": "U",
        "meta_norad_cat_id": 66432,
        "meta_element_set_no": 999,
        "meta_rev_at_epoch": 521,
        "meta_bstar": 0.0030811086,
        "meta_mean_motion_dot": 0.00187576,
        "meta_mean_motion_ddot": 0,
        "tle_line1": "1 66432U 25259L   25340.57079757  .00187576  00000+0  30811-2 0  9993",
        "tle_line2": "2 66432  43.0010  83.3771 0014416 233.1214 126.8325 15.50893835  5214"
      },
      "geometry": {
        "type": "Point",
        "coordinates": [
          -102.21247111074256,
          3.6253945308205444
        ]
      }
    },
    {
      "type": "Feature",
      "properties": {
        "norad_id": 66433,
        "name": "STARLINK-35457",
        "group": "last-30-days",
        "lat": 1.7958279711835174,
        "lon": -100.25128711151592,
        "alt_km": 413.44564992619144,
        "timestamp": "2025-12-06T20:37:54.812099+00:00",
        "meta_object_name": "STARLINK-35457",
        "meta_object_id": "2025-259M",
        "meta_epoch": "2025-12-05T14:30:06.205536",
        "meta_mean_motion": 15.50628115,
        "meta_eccentricity": 0.00014015,
        "meta_inclination": 43.0005,
        "meta_ra_of_asc_node": 89.0241,
        "meta_arg_of_pericenter": 255.623,
        "meta_mean_anomaly": 104.4475,
        "meta_ephemeris_type": 0,
        "meta_classification_type": "U",
        "meta_norad_cat_id": 66433,
        "meta_element_set_no": 999,
        "meta_rev_at_epoch": 506,
        "meta_bstar": 0.0021532261,
        "meta_mean_motion_dot": 0.00128293,
        "meta_mean_motion_ddot": 0,
        "tle_line1": "1 66433U 25259M   25339.60423849  .00128293  00000+0  21532-2 0  9992",
        "tle_line2": "2 66433  43.0005  89.0241 0001401 255.6230 104.4475 15.50628115  5069"
      },
      "geometry": {
        "type": "Point",
        "coordinates": [
          -100.25128711151592,
          1.7958279711835174
        ]
      }
    },
    {
      "type": "Feature",
      "properties": {
        "norad_id": 66434,
        "name": "STARLINK-35389",
        "group": "last-30-days",
        "lat": -0.719506560482067,
        "lon": -97.55666484748996,
        "alt_km": 410.70554866377734,
        "timestamp": "2025-12-06T20:37:54.812110+00:00",
        "meta_object_name": "STARLINK-35389",
        "meta_object_id": "2025-259N",
        "meta_epoch": "2025-12-06T13:40:28.629120",
        "meta_mean_motion": 15.51322221,
        "meta_eccentricity": 0.00037232,
        "meta_inclination": 43.0006,
        "meta_ra_of_asc_node": 83.3692,
        "meta_arg_of_pericenter": 226.3618,
        "meta_mean_anomaly": 133.6934,
        "meta_ephemeris_type": 0,
        "meta_classification_type": "U",
        "meta_norad_cat_id": 66434,
        "meta_element_set_no": 999,
        "meta_rev_at_epoch": 521,
        "meta_bstar": 0.0031867247,
        "meta_mean_motion_dot": 0.00196544,
        "meta_mean_motion_ddot": 0,
        "tle_line1": "1 66434U 25259N   25340.56977580  .00196544  00000+0  31867-2 0  9992",
        "tle_line2": "2 66434  43.0006  83.3692 0003723 226.3618 133.6934 15.51322221  5213"
      },
      "geometry": {
        "type": "Point",
        "coordinates": [
          -97.55666484748996,
          -0.719506560482067
        ]
      }
    },
    {
      "type": "Feature",
      "properties": {
        "norad_id": 66435,
        "name": "STARLINK-35502",
        "group": "last-30-days",
        "lat": 2.758819011448054,
        "lon": -101.28117094659905,
        "alt_km": 415.78472944557416,
        "timestamp": "2025-12-06T20:37:54.812123+00:00",
        "meta_object_name": "STARLINK-35502",
        "meta_object_id": "2025-259P",
        "meta_epoch": "2025-12-06T07:29:56.270976",
        "meta_mean_motion": 15.49134217,
        "meta_eccentricity": 0.00125767,
        "meta_inclination": 43.0002,
        "meta_ra_of_asc_node": 84.8779,
        "meta_arg_of_pericenter": 98.8044,
        "meta_mean_anomaly": 261.424,
        "meta_ephemeris_type": 0,
        "meta_classification_type": "U",
        "meta_norad_cat_id": 66435,
        "meta_element_set_no": 999,
        "meta_rev_at_epoch": 517,
        "meta_bstar": 0.002434079,
        "meta_mean_motion_dot": 0.00138142,
        "meta_mean_motion_ddot": 0,
        "tle_line1": "1 66435U 25259P   25340.31245684  .00138142  00000+0  24341-2 0  9998",
        "tle_line2": "2 66435  43.0002  84.8779 0012576  98.8044 261.4240 15.49134217  5171"
      },
      "geometry": {
        "type": "Point",
        "coordinates": [
          -101.28117094659905,
          2.758819011448054
        ]
      }
    },
    {
      "type": "Feature",
      "properties": {
        "norad_id": 66436,
        "name": "STARLINK-35501",
        "group": "last-30-days",
        "lat": -2.8300594796463843,
        "lon": -95.29543314295816,
        "alt_km": 414.6010503303478,
        "timestamp": "2025-12-06T20:37:54.812136+00:00",
        "meta_object_name": "STARLINK-35501",
        "meta_object_id": "2025-259Q",
        "meta_epoch": "2025-12-06T15:12:14.592672",
        "meta_mean_motion": 15.50648591,
        "meta_eccentricity": 0.00027231,
        "meta_inclination": 43.001,
        "meta_ra_of_asc_node": 82.9871,
        "meta_arg_of_pericenter": 267.8361,
        "meta_mean_anomaly": 92.2187,
        "meta_ephemeris_type": 0,
        "meta_classification_type": "U",
        "meta_norad_cat_id": 66436,
        "meta_element_set_no": 999,
        "meta_rev_at_epoch": 522,
        "meta_bstar": 0.0027237366,
        "meta_mean_motion_dot": 0.00163234,
        "meta_mean_motion_ddot": 0,
        "tle_line1": "1 66436U 25259Q   25340.63350223  .00163234  00000+0  27237-2 0  9997",
        "tle_line2": "2 66436  43.0010  82.9871 0002723 267.8361  92.2187 15.50648591  5229"
      },
      "geometry": {
        "type": "Point",
        "coordinates": [
          -95.29543314295816,
          -2.8300594796463843
        ]
      }
    },
    {
      "type": "Feature",
      "properties": {
        "norad_id": 66437,
        "name": "STARLINK-35474",
        "group": "last-30-days",
        "lat": -4.157297803951978,
        "lon": -93.86873232440747,
        "alt_km": 414.9618652809795,
        "timestamp": "2025-12-06T20:37:54.812147+00:00",
        "meta_object_name": "STARLINK-35474",
        "meta_object_id": "2025-259R",
        "meta_epoch": "2025-12-06T13:38:59.664768",
        "meta_mean_motion": 15.5063547,
        "meta_eccentricity": 0.00013204,
        "meta_inclination": 43.0007,
        "meta_ra_of_asc_node": 83.3599,
        "meta_arg_of_pericenter": 274.8396,
        "meta_mean_anomaly": 85.2313,
        "meta_ephemeris_type": 0,
        "meta_classification_type": "U",
        "meta_norad_cat_id": 66437,
        "meta_element_set_no": 999,
        "meta_rev_at_epoch": 521,
        "meta_bstar": 0.0021597842,
        "meta_mean_motion_dot": 0.00128725,
        "meta_mean_motion_ddot": 0,
        "tle_line1": "1 66437U 25259R   25340.56874612  .00128725  00000+0  21598-2 0  9993",
        "tle_line2": "2 66437  43.0007  83.3599 0001320 274.8396  85.2313 15.50635470  5210"
      },
      "geometry": {
        "type": "Point",
        "coordinates": [
          -93.86873232440747,
          -4.157297803951978
        ]
      }
    }
  ]
}